      2.10          N: GNSS NAV DATA                        RINEX VERSION / TYPE
fic2rin                                 11/30/2019 00:17:27 PGM / RUN BY / DATE
                                                            END OF HEADER
 9 19 11 30  0  0  0.0-9.599979966879e-05-9.549694368616e-12 0.000000000000e+00
    1.400000000000e+01 2.250000000000e+00 5.063068039964e-09 4.599738038695e-02
   -9.313225746155e-08 1.681645633653e-03 5.889683961868e-06 5.153542438507e+03
    5.184000000000e+05-1.303851604462e-08 2.118327205517e+00-3.725290298462e-09
    9.521974861159e-01 2.610000000000e+02 1.678436721398e+00-8.177126324419e-09
    1.182192100189e-10 1.000000000000e+00 2.081000000000e+03 0.000000000000e+00
    2.400000000000e+00 0.000000000000e+00 1.396983861923e-09 1.400000000000e+01
    5.112000000000e+05 4.000000000000e+00
 6 19 11 30  0  0  0.0-1.390287652612e-04-1.148237060988e-11 0.000000000000e+00
    1.400000000000e+01-1.240625000000e+02 3.963736534108e-09-2.255597835481e+00
   -6.416812539101e-06 1.598248723894e-03 6.521120667458e-06 5.153709894180e+03
    5.184000000000e+05 1.154839992523e-07 3.703258913884e-02 7.078051567078e-08
    9.779391052834e-01 2.651250000000e+02-1.212819699334e+00-7.855684363643e-09
   -1.796503403006e-10 1.000000000000e+00 2.081000000000e+03 0.000000000000e+00
    2.400000000000e+00 0.000000000000e+00 4.656612873077e-09 1.400000000000e+01
    5.112000000000e+05 4.000000000000e+00
 5 19 11 30  0  0  0.0-4.071742296219e-06-4.547473508865e-13 0.000000000000e+00
    6.100000000000e+01-3.409375000000e+01 4.555904057405e-09 2.140319443182e-01
   -1.655891537666e-06 5.807914189063e-03 9.512528777122e-06 5.153555952072e+03
    5.184000000000e+05-1.862645149231e-09 1.056990587169e+00 1.210719347000e-07
    9.509425013607e-01 1.911250000000e+02 8.044233018365e-01-7.963188841636e-09
    4.882346226460e-10 1.000000000000e+00 2.081000000000e+03 0.000000000000e+00
    2.400000000000e+00 0.000000000000e+00-1.117587089539e-08 6.100000000000e+01
    5.112000000000e+05 4.000000000000e+00
 3 19 11 30  0  0  0.0-4.461407661438e-05-6.252776074689e-12 0.000000000000e+00
    6.100000000000e+01-3.306250000000e+01 4.233390623426e-09 2.467645580120e+00
   -1.667067408562e-06 2.596542122774e-03 1.027062535286e-05 5.153663265228e+03
    5.184000000000e+05-1.676380634308e-08 1.086412333297e+00-1.862645149231e-09
    9.640344083369e-01 1.816875000000e+02 7.898682909905e-01-7.730321998940e-09
    5.675236396376e-10 1.000000000000e+00 2.081000000000e+03 0.000000000000e+00
    2.400000000000e+00 0.000000000000e+00 2.328306436539e-09 6.100000000000e+01
    5.112000000000e+05 4.000000000000e+00
 7 19 11 30  0  0  0.0-1.594889909029e-04-8.185452315956e-12 0.000000000000e+00
    7.000000000000e+00 2.215625000000e+01 4.599834458711e-09 2.955918230773e+00
    1.059845089912e-06 1.318767550401e-02 9.717419743538e-06 5.153717517853e+03
    5.184000000000e+05-2.421438694000e-08-3.090017056848e+00-2.030283212662e-07
    9.546312800189e-01 1.896875000000e+02-2.421571997794e+00-7.657461821164e-09
   -4.814486256963e-10 1.000000000000e+00 2.081000000000e+03 0.000000000000e+00
    2.400000000000e+00 0.000000000000e+00-1.117587089539e-08 7.000000000000e+00
    5.112000000000e+05 4.000000000000e+00
 4 19 11 30  0  0  0.0-1.474516466260e-05-4.547473508865e-12 0.000000000000e+00
    7.000000000000e+00 7.500000000000e-01 4.893418116221e-09-3.082115044863e+00
   -1.210719347000e-07 1.262068049982e-03 5.856156349182e-06 5.150581720352e+03
    5.184000000000e+05 2.793967723846e-08 2.164873794609e+00 2.048909664154e-08
    9.595556495272e-01 2.643750000000e+02-1.269865910418e+00-8.066407426819e-09
    7.571743964957e-11 1.000000000000e+00 2.081000000000e+03 0.000000000000e+00
    1.536000000000e+03 6.300000000000e+01-4.190951585770e-09 5.190000000000e+02
    5.112000000000e+05 4.000000000000e+00
13 19 11 30  0  0  0.0-2.974923700094e-05 2.387423592154e-12 0.000000000000e+00
    1.300000000000e+01-1.875000000000e+00 4.730197031693e-09-1.331594506805e+00
    3.725290298462e-09 4.107552580535e-03 5.904585123062e-06 5.153656368256e+03
    5.184000000000e+05 3.911554813385e-08 2.258456283781e+00 5.401670932770e-08
    9.675883205774e-01 2.690000000000e+02 1.187127465355e+00-7.998547457321e-09
    1.535778257043e-11 1.000000000000e+00 2.081000000000e+03 0.000000000000e+00
    2.400000000000e+00 0.000000000000e+00-1.117587089539e-08 1.300000000000e+01
    5.112000000000e+05 4.000000000000e+00
31 19 11 30  0  0  0.0-6.536487489939e-06-2.501110429876e-12 0.000000000000e+00
    4.800000000000e+01 2.415625000000e+01 4.514116602504e-09 2.629480000259e+00
    1.301988959312e-06 9.593001683243e-03 9.987503290176e-06 5.153743820190e+03
    5.184000000000e+05-1.825392246246e-07-3.075205315582e+00 5.960464477539e-08
    9.591293522731e-01 1.877500000000e+02 7.246231891787e-02-7.720678740117e-09
   -4.532331646948e-10 1.000000000000e+00 2.081000000000e+03 0.000000000000e+00
    2.400000000000e+00 0.000000000000e+00-1.350417733192e-08 4.800000000000e+01
    5.112000000000e+05 4.000000000000e+00
16 19 11 30  0  0  0.0-9.810831397772e-05-3.751665644813e-12 0.000000000000e+00
    5.500000000000e+01 1.180625000000e+02 4.059097649138e-09 4.994284952701e-01
    6.375834345818e-06 1.101112039760e-02 6.448477506638e-06 5.153679491043e+03
    5.184000000000e+05 0.000000000000e+00-1.968016224735e+00 1.657754182816e-07
    9.808103248583e-01 2.635312500000e+02 5.793315929719e-01-7.990689987169e-09
   -2.107230631757e-11 1.000000000000e+00 2.081000000000e+03 0.000000000000e+00
    2.400000000000e+00 0.000000000000e+00-1.024454832077e-08 5.500000000000e+01
    5.112000000000e+05 4.000000000000e+00
28 19 11 30  0  0  0.0 7.528965361416e-04-1.705302565824e-12 0.000000000000e+00
    2.900000000000e+01 1.117500000000e+02 4.108028258723e-09 2.970892133582e-01
    5.891546607018e-06 1.908298349008e-02 7.754191756248e-06 5.153714117050e+03
    5.184000000000e+05-2.048909664154e-07-1.964171664320e+00-1.322478055954e-07
    9.797922216503e-01 2.443750000000e+02-1.434650139554e+00-8.242486189777e-09
    2.535819912792e-11 1.000000000000e+00 2.081000000000e+03 0.000000000000e+00
    2.400000000000e+00 0.000000000000e+00-1.117587089539e-08 2.900000000000e+01
    5.112000000000e+05 4.000000000000e+00
22 19 11 30  0  0  0.0-7.748119533062e-04-2.273736754432e-12 0.000000000000e+00
    6.200000000000e+01-3.334375000000e+01 5.040567102709e-09-1.388681288995e+00
   -1.613050699234e-06 6.881888839416e-03 1.037120819092e-05 5.153639524460e+03
    5.184000000000e+05-1.378357410431e-07 1.006495607051e+00 1.210719347000e-07
    9.288406530958e-01 1.633437500000e+02-1.260646697235e+00-8.226414091738e-09
    5.668093241692e-10 1.000000000000e+00 2.081000000000e+03 0.000000000000e+00
    2.400000000000e+00 0.000000000000e+00-1.816079020500e-08 6.200000000000e+01
    5.112000000000e+05 4.000000000000e+00
27 19 11 30  0  0  0.0-1.354021951556e-04-1.170974428533e-11 0.000000000000e+00
    4.100000000000e+01 9.375000000000e-02 4.380896767649e-09-4.460510106264e-01
   -4.097819328308e-08 7.410029531457e-03 9.648501873016e-07 5.153656373978e+03
    5.184000000000e+05 8.568167686462e-08-1.009945235176e+00 5.215406417847e-08
    9.783809123950e-01 3.684687500000e+02 5.004644885033e-01-8.382492021582e-09
   -1.028614274485e-10 1.000000000000e+00 2.081000000000e+03 0.000000000000e+00
    2.400000000000e+00 0.000000000000e+00 1.862645149231e-09 4.100000000000e+01
    5.112000000000e+05 4.000000000000e+00
24 19 11 30  0  0  0.0-5.567446351051e-06-4.547473508865e-13 0.000000000000e+00
    5.200000000000e+01 3.156250000000e+00 5.073425614255e-09-2.385503657460e+00
   -2.980232238770e-08 9.174102917314e-03 9.266659617424e-06 5.153667943954e+03
    5.184000000000e+05 7.078051567078e-08 3.124109089946e+00-1.639127731323e-07
    9.378241404369e-01 1.882187500000e+02 6.269753018665e-01-8.071407635097e-09
   -3.682296239562e-10 1.000000000000e+00 2.081000000000e+03 0.000000000000e+00
    2.400000000000e+00 0.000000000000e+00 2.793967723846e-09 5.200000000000e+01
    5.112000000000e+05 4.000000000000e+00
30 19 11 30  0  0  0.0-9.496230632067e-05-8.526512829121e-12 0.000000000000e+00
    7.200000000000e+01 2.190625000000e+01 5.020923427329e-09 2.923884437100e+00
    1.184642314911e-06 4.151175264269e-03 9.631738066673e-06 5.153721618652e+03
    5.184000000000e+05-1.490116119385e-08-3.064639440957e+00-7.450580596924e-08
    9.400160686310e-01 1.847187500000e+02-2.912947219738e+00-8.004619138803e-09
   -4.489472718845e-10 1.000000000000e+00 2.081000000000e+03 0.000000000000e+00
    2.400000000000e+00 0.000000000000e+00 3.725290298462e-09 7.200000000000e+01
    5.112000000000e+05 4.000000000000e+00
25 19 11 30  0  0  0.0-1.740595325828e-05-1.136868377216e-13 0.000000000000e+00
    1.130000000000e+02 1.157812500000e+02 4.218747156324e-09 1.971550077443e+00
    5.908310413361e-06 8.645139751025e-03 7.405877113342e-06 5.153634672165e+03
    5.184000000000e+05-2.104789018631e-07-2.053597826215e+00-1.341104507446e-07
    9.679447517899e-01 2.395937500000e+02 8.854796281007e-01-7.900686238152e-09
    7.214586230761e-11 1.000000000000e+00 2.081000000000e+03 0.000000000000e+00
    3.400000000000e+00 0.000000000000e+00 5.587935447693e-09 1.130000000000e+02
    5.112000000000e+05 4.000000000000e+00
23 19 11 30  0  0  0.0-1.525473780930e-04 2.273736754432e-12 0.000000000000e+00
    1.160000000000e+02 1.718750000000e+00 5.207716922313e-09-1.893864735754e+00
   -3.911554813385e-08 1.324417756405e-02 5.299225449562e-06 5.153704048157e+03
    5.184000000000e+05 1.993030309677e-07 2.111445059556e+00-8.381903171539e-08
    9.430061034865e-01 2.612812500000e+02-2.218584188205e+00-8.081765209389e-09
    2.400099973798e-10 1.000000000000e+00 2.081000000000e+03 0.000000000000e+00
    2.400000000000e+00 0.000000000000e+00-2.048909664154e-08 1.160000000000e+02
    5.112000000000e+05 4.000000000000e+00
